IRIDIUM 155             
1 43573U 18061E   25343.48025882  .00000653  00000+0  22606-3 0  9994
2 43573  86.3969 135.9977 0001988  99.1353 261.0068 14.34217935386168
IRIDIUM 154             
1 43574U 18061F   25343.67054994  .00000559  00000+0  19271-3 0  9991
2 43574  86.3973 136.0423 0002036  91.5582 268.5847 14.34220386386247
IRIDIUM 163             
1 43575U 18061G   25343.58174068  .00000497  00000+0  17026-3 0  9994
2 43575  86.3970 136.0007 0001786  92.0025 268.1375 14.34219850386204
IRIDIUM 156             
1 43576U 18061H   25343.48660260  .00000578  00000+0  19941-3 0  9996
2 43576  86.3972 136.0477 0002035  99.0091 261.1335 14.34217437386181
IRIDIUM 164             
1 43577U 18061J   25343.46757646  .00000350  00000+0  11785-3 0  9996
2 43577  86.3975 136.0928 0002121  91.1861 268.9578 14.34221641386221
IRIDIUM 159             
1 43578U 18061K   25343.50562695  .00000327  00000+0  10977-3 0  9996
2 43578  86.3971 136.0177 0001983  88.7046 271.4377 14.34214966386190
IRIDIUM 180             
1 43922U 19002A   25343.29582146  .00000391  00000+0  13271-3 0  9995
2 43922  86.3966  72.9809 0001999  92.5241 267.6183 14.34217878361778
IRIDIUM 176             
1 43923U 19002B   25343.52906525  .00001773  00000+0  27735-3 0  9998
2 43923  86.6101  72.8554 0002032  96.0091 264.1358 14.72234159371343
IRIDIUM 168             
1 43924U 19002C   25343.49878414  .00000053  00000+0  11822-4 0  9991
2 43924  86.3972  72.9682 0001977  96.9324 263.2096 14.34216634361787
IRIDIUM 173             
1 43925U 19002D   25343.48609758  .00000735  00000+0  25530-3 0  9991
2 43925  86.3965  72.8699 0001895  99.6186 260.5224 14.34217937361760
IRIDIUM 169             
1 43926U 19002E   25343.57364757  .00000614  00000+0  19438-3 0  9995
2 43926  86.4220 104.4843 0001694 125.3847 234.7509 14.38602163362962
IRIDIUM 172             
1 43927U 19002F   25343.54952410  .00000457  00000+0  15599-3 0  9991
2 43927  86.3965  72.8507 0001995  91.7990 268.3434 14.34217871361785
IRIDIUM 175             
1 43928U 19002G   25343.38841793  .00001269  00000+0  19729-3 0  9996
2 43928  86.1504  15.5087 0003146  96.5131 263.6443 14.72249725371313
IRIDIUM 171             
1 43929U 19002H   25343.53049799 -.00000039  00000+0 -20891-4 0  9999
2 43929  86.3975  73.1444 0002174 102.7557 257.3882 14.34217039361774
IRIDIUM 170             
1 43930U 19002J   25343.53527807  .00001975  00000+0  30926-3 0  9999
2 43930  86.6087  72.8556 0002260  90.6167 269.5309 14.72251920371354
IRIDIUM 167             
1 43931U 19002K   25343.52415561  .00000083  00000+0  22507-4 0  9998
2 43931  86.3967  72.8824 0002296 107.2743 252.8704 14.34216856361777
IRIDIUM 181             
1 56726U 23068S   25343.49055776  .00000628  00000+0  18055-3 0  9992
2 56726  86.4488 136.0808 0002721  93.6810 266.4702 14.43307217135076
IRIDIUM 177             
1 56727U 23068T   25343.63246787  .00002534  00000+0  32991-3 0  9996
2 56727  86.1966  58.8055 0002294  86.1095 274.0388 14.80245550138325
IRIDIUM 174             
1 56728U 23068U   25343.31900238  .00001967  00000+0  30792-3 0  9996
2 56728  86.6092  73.0744 0002235  87.0225 273.1248 14.72258252138087
IRIDIUM 178             
1 56729U 23068V   25343.62158222  .00002639  00000+0  34386-3 0  9999
2 56729  86.6537 104.6015 0002436  99.5548 260.5949 14.80233329138325
IRIDIUM 179             
1 56730U 23068W   25343.61620163  .00002649  00000+0  34524-3 0  9993
2 56730  86.6779 113.0174 0002524  93.3319 266.8191 14.80232065138325
